NORAD_CAT_ID,OBJECT_NAME,OBJECT_TYPE,EPOCH,MEAN_MOTION,ECCENTRICITY,INCLINATION,RA_OF_ASC_NODE,ARG_OF_PERICENTER,MEAN_ANOMALY,BSTAR,MEAN_MOTION_DOT,MEAN_MOTION_DDOT,TLE_LINE0,TLE_LINE1,TLE_LINE2,SEMIMAJOR_AXIS,PERIOD,APOGEE,PERIGEE,DECAYED
55397.0,STARLINK-5224,PAYLOAD,2023-05-07 13:46:51,15.69911121,0.0003462,69.9992,180.092,266.768,93.3119,-3.1867e-06,-5.96e-06,0.0,0 STARLINK-5224,1 55397U 23014G   23127.57420521 -.00000596  00000-0 -31867-5 0  9992,2 55397  69.9992 180.0920 0003462 266.7680  93.3119 15.69911121 16194,6737.288,91.725,361.486,356.821,0.0
55397.0,STARLINK-5224,PAYLOAD,2023-05-08 05:04:21,15.69933071,0.0003624,69.9962,178.2971,265.8671,94.2111,1.4076e-05,1.48e-05,0.0,0 STARLINK-5224,1 55397U 23014G   23128.21135435  .00001480  00000-0  14076-4 0  9994,2 55397  69.9962 178.2971 0003624 265.8671  94.2111 15.69933071 15353,6737.225,91.724,361.532,356.649,0.0
55397.0,STARLINK-5224,PAYLOAD,2023-05-08 20:21:52,15.69922445,0.0002982,69.9968,176.5069,265.913,94.1725,4.0773e-06,2.78e-06,0.0,0 STARLINK-5224,1 55397U 23014G   23128.84852886  .00000278  00000-0  40773-5 0  9997,2 55397  69.9968 176.5069 0002982 265.9130  94.1725 15.69922445 15459,6737.256,91.724,361.13,357.112,0.0
55397.0,STARLINK-5224,PAYLOAD,2023-05-09 13:11:09,15.69918626,0.0003381,69.9976,174.5367,264.2287,95.8523,1.9656e-05,2.151e-05,0.0,0 STARLINK-5224,1 55397U 23014G   23129.54941236  .00002151  00000-0  19656-4 0  9990,2 55397  69.9976 174.5367 0003381 264.2287  95.8523 15.69918626 16503,6737.267,91.724,361.41,356.854,0.0
55397.0,STARLINK-5224,PAYLOAD,2023-05-10 12:07:26,15.6991672,0.0003366,69.9976,171.8496,261.3045,98.777,7.8596e-06,7.32e-06,0.0,0 STARLINK-5224,1 55397U 23014G   23130.50516574  .00000732  00000-0  78596-5 0  9993,2 55397  69.9976 171.8496 0003366 261.3045  98.7770 15.69916720 16654,6737.272,91.725,361.405,356.869,0.0
55397.0,STARLINK-5224,PAYLOAD,2023-05-10 19:46:11,15.69929129,0.0003527,69.997,170.9542,264.3536,95.7257,1.236e-05,1.274e-05,0.0,0 STARLINK-5224,1 55397U 23014G   23130.82373985  .00001274  00000-0  12360-4 0  9993,2 55397  69.9970 170.9542 0003527 264.3536  95.7257 15.69929129 15762,6737.237,91.724,361.478,356.726,0.0
55397.0,STARLINK-5224,PAYLOAD,2023-05-11 11:03:42,15.69925567,0.0003469,69.9984,169.1665,257.049,103.0318,-1.4808e-06,-3.91e-06,0.0,0 STARLINK-5224,1 55397U 23014G   23131.46091294 -.00000391  00000-0 -14808-5 0  9995,2 55397  69.9984 169.1665 0003469 257.0490 103.0318 15.69925567 15860,6737.247,91.724,361.449,356.775,0.0
55397.0,STARLINK-5224,PAYLOAD,2023-05-11 20:14:13,15.6992325,0.0002868,69.9991,168.0874,282.0788,78.0086,6.3242e-06,5.48e-06,0.0,0 STARLINK-5224,1 55397U 23014G   23131.84321613  .00000548  00000-0  63242-5 0  9996,2 55397  69.9991 168.0874 0002868 282.0788  78.0086 15.69923250 16869,6737.254,91.724,361.051,357.186,0.0
55397.0,STARLINK-5224,PAYLOAD,2023-05-12 03:52:59,15.69916778,0.0002794,69.9977,167.1917,261.0563,99.0316,8.8944e-06,8.57e-06,0.0,0 STARLINK-5224,1 55397U 23014G   23132.16180210  .00000857  00000-0  88944-5 0  9997,2 55397  69.9977 167.1917 0002794 261.0563  99.0316 15.69916778 16919,6737.272,91.725,361.019,357.255,0.0
55397.0,STARLINK-5224,PAYLOAD,2023-05-12 19:10:30,15.69933472,0.0002536,69.9985,165.3999,264.9291,95.1615,-1.6995e-06,-4.17e-06,0.0,0 STARLINK-5224,1 55397U 23014G   23132.79896250 -.00000417  00000-0 -16995-5 0  9995,2 55397  69.9985 165.3999 0002536 264.9291  95.1615 15.69933472 16078,6737.224,91.724,360.798,357.381,0.0
55397.0,STARLINK-5224,PAYLOAD,2023-05-13 11:59:47,15.69918995,0.0003195,69.997,163.4302,253.7178,106.3666,-5.5495e-06,-8.8e-06,0.0,0 STARLINK-5224,1 55397U 23014G   23133.49985340 -.00000880  00000-0 -55495-5 0  9994,2 55397  69.9970 163.4302 0003195 253.7178 106.3666 15.69918995 16187,6737.266,91.724,361.283,356.978,0.0
55397.0,STARLINK-5224,PAYLOAD,2023-05-14 10:56:03,15.69930384,0.0003267,69.9967,160.7417,260.4453,99.6374,7.9966e-06,7.49e-06,0.0,0 STARLINK-5224,1 55397U 23014G   23134.45559553  .00000749  00000-0  79966-5 0  9995,2 55397  69.9967 160.7417 0003267 260.4453  99.6374 15.69930384 16334,6737.233,91.724,361.299,356.897,0.0
55397.0,STARLINK-5224,PAYLOAD,2023-05-15 05:17:05,15.6991389,0.0003238,69.9969,158.5926,265.0127,95.0699,1.9105e-05,2.084e-05,0.0,0 STARLINK-5224,1 55397U 23014G   23135.22020460  .00002084  00000-0  19105-4 0  9993,2 55397  69.9969 158.5926 0003238 265.0127  95.0699 15.69913890 16459,6737.28,91.725,361.327,356.964,0.0
55397.0,STARLINK-5224,PAYLOAD,2023-05-15 11:24:05,15.69943696,0.0003309,69.9965,157.8759,269.2604,90.8213,-3.8075e-05,-4.792e-05,0.0,0 STARLINK-5224,1 55397U 23014G   23135.47506369 -.00004792  00000-0 -38075-4 0  9994,2 55397  69.9965 157.8759 0003309 269.2604  90.8213 15.69943696 16492,6737.195,91.723,361.289,356.831,0.0
55397.0,STARLINK-5224,PAYLOAD,2023-05-15 19:02:51,15.69944809,0.0003135,69.9968,156.9799,272.4222,87.6614,-3.5425e-05,-4.473e-05,0.0,0 STARLINK-5224,1 55397U 23014G   23135.79364769 -.00004473  00000-0 -35425-4 0  9997,2 55397  69.9968 156.9799 0003135 272.4222  87.6614 15.69944809 17484,6737.192,91.723,361.169,356.945,0.0
55397.0,STARLINK-5224,PAYLOAD,2023-05-16 04:13:22,15.69926708,0.0003206,69.9963,155.9056,270.7708,89.312,5.124e-06,4.03e-06,0.0,0 STARLINK-5224,1 55397U 23014G   23136.17595112  .00000403  00000-0  51240-5 0  9999,2 55397  69.9963 155.9056 0003206 270.7708  89.3120 15.69926708 16605,6737.244,91.724,361.269,356.949,0.0
55397.0,STARLINK-5224,PAYLOAD,2023-05-16 11:52:08,15.69894346,0.0003097,69.9965,155.0103,269.1639,90.9202,5.6879e-05,6.623e-05,0.0,0 STARLINK-5224,1 55397U 23014G   23136.49454482  .00006623  00000-0  56879-4 0  9990,2 55397  69.9965 155.0103 0003097 269.1639  90.9202 15.69894346 16650,6737.336,91.726,361.288,357.115,0.0
55397.0,STARLINK-5224,PAYLOAD,2023-05-17 01:37:54,15.69921246,0.0003103,69.997,153.3984,266.7225,93.3616,5.6238e-06,4.63e-06,0.0,0 STARLINK-5224,1 55397U 23014G   23137.06798828  .00000463  00000-0  56238-5 0  9995,2 55397  69.9970 153.3984 0003103 266.7225  93.3616 15.69921246 16742,6737.259,91.724,361.215,357.034,0.0
55397.0,STARLINK-5224,PAYLOAD,2023-05-17 10:48:25,15.69918404,0.0002923,69.9975,152.324,253.0821,107.0055,2.6864e-06,1.1e-06,0.0,0 STARLINK-5224,1 55397U 23014G   23137.45029185  .00000110  00000-0  26864-5 0  9992,2 55397  69.9975 152.3240 0002923 253.0821 107.0055 15.69918404 17744,6737.267,91.725,361.102,357.163,0.0
55397.0,STARLINK-5224,PAYLOAD,2023-05-18 02:05:56,15.69921956,0.0003452,69.9968,150.5324,267.5088,92.5713,2.9479e-06,1.42e-06,0.0,0 STARLINK-5224,1 55397U 23014G   23138.08745642  .00000142  00000-0  29479-5 0  9995,2 55397  69.9968 150.5324 0003452 267.5088  92.5713 15.69921956 16904,6737.257,91.724,361.448,356.797,0.0
55397.0,STARLINK-5224,PAYLOAD,2023-05-18 12:48:11,15.6992357,0.0003057,69.9975,149.2781,270.6173,89.4672,8.3524e-06,7.92e-06,0.0,0 STARLINK-5224,1 55397U 23014G   23138.53347205  .00000792  00000-0  83524-5 0  9990,2 55397  69.9975 149.2781 0003057 270.6173  89.4672 15.69923570 17910,6737.253,91.724,361.177,357.058,0.0
55397.0,STARLINK-5224,PAYLOAD,2023-05-19 02:33:58,15.69925468,0.0002513,69.9974,147.6659,260.051,100.0402,-5.278e-06,-8.47e-06,0.0,0 STARLINK-5224,1 55397U 23014G   23139.10692544 -.00000847  00000-0 -52780-5 0  9996,2 55397  69.9974 147.6659 0002513 260.0510 100.0402 15.69925468 17064,6737.247,91.724,360.805,357.419,0.0
55397.0,STARLINK-5224,PAYLOAD,2023-05-19 10:12:43,15.69936919,0.0002795,69.9975,146.7696,261.1493,98.9386,-2.0141e-05,-2.635e-05,0.0,0 STARLINK-5224,1 55397U 23014G   23139.42550379 -.00002635  00000-0 -20141-4 0  9992,2 55397  69.9975 146.7696 0002795 261.1493  98.9386 15.69936919 17115,6737.214,91.723,360.963,357.196,0.0
55397.0,STARLINK-5224,PAYLOAD,2023-05-20 03:01:59,15.69924161,0.0003506,69.9977,144.7988,261.3609,98.719,1.007e-05,9.98e-06,0.0,0 STARLINK-5224,1 55397U 23014G   23140.12638815  .00000998  00000-0  10070-4 0  9991,2 55397  69.9977 144.7988 0003506 261.3609  98.7190 15.69924161 17220,6737.251,91.724,361.478,356.754,0.0
55397.0,STARLINK-5224,PAYLOAD,2023-05-20 09:08:59,15.69936042,0.0003397,69.9975,144.0824,260.041,100.0403,1.6642e-05,1.79e-05,0.0,0 STARLINK-5224,1 55397U 23014G   23140.38124591  .00001790  00000-0  16642-4 0  9992,2 55397  69.9975 144.0824 0003397 260.0410 100.0403 15.69936042 17263,6737.217,91.723,361.371,356.793,0.0
55397.0,STARLINK-5224,PAYLOAD,2023-05-21 09:37:04,15.69897243,0.0003219,69.9982,141.2181,264.8641,95.2188,-2.1976e-05,-2.851e-05,0.0,0 STARLINK-5224,1 55397U 23014G   23141.40074276 -.00002851  00000-0 -21976-4 0  9997,2 55397  69.9982 141.2181 0003219 264.8641  95.2188 15.69897243 17429,6737.328,91.726,361.362,357.024,0.0
55397.0,STARLINK-5224,PAYLOAD,2023-05-22 00:54:33,15.69935371,0.0002766,69.9981,139.4268,256.8469,103.2418,3.7544e-06,2.39e-06,0.0,0 STARLINK-5224,1 55397U 23014G   23142.03788635  .00000239  00000-0  37544-5 0  9993,2 55397  69.9981 139.4268 0002766 256.8469 103.2418 15.69935371 17520,6737.219,91.724,360.947,357.22,0.0
55397.0,STARLINK-5224,PAYLOAD,2023-05-22 08:33:18,15.69944396,0.0002811,69.9977,138.5286,258.0845,102.0035,1.437e-05,1.517e-05,0.0,0 STARLINK-5224,1 55397U 23014G   23142.35645954  .00001517  00000-0  14370-4 0  9995,2 55397  69.9977 138.5286 0002811 258.0845 102.0035 15.69944396 18517,6737.193,91.723,360.952,357.164,0.0
55397.0,STARLINK-5224,PAYLOAD,2023-05-23 02:54:21,15.69898348,0.0003152,69.9978,136.3783,272.4272,87.6562,2.367e-05,2.631e-05,0.0,0 STARLINK-5224,1 55397U 23014G   23143.12108521  .00002631  00000-0  23670-4 0  9996,2 55397  69.9978 136.3783 0003152 272.4272  87.6562 15.69898348 17695,6737.325,91.726,361.313,357.066,0.0
55397.0,STARLINK-5224,PAYLOAD,2023-05-23 09:01:21,15.69911856,0.0003341,69.9975,135.6626,273.098,86.9834,3.624e-05,4.145e-05,0.0,0 STARLINK-5224,1 55397U 23014G   23143.37594323  .00004145  00000-0  36240-4 0  9991,2 55397  69.9975 135.6626 0003341 273.0980  86.9834 15.69911856 17732,6737.286,91.725,361.402,356.9,0.0
